GLOBALSTAR M067         
1 32263U 07048A   24243.52323679 -.00000097  00000+0  10831-5 0  9991
2 32263  51.9720 166.4270 0001337  69.1803 102.3361 12.40652855773404
GLOBALSTAR M070         
1 32264U 07048B   24243.45040602 -.00000045  00000+0  32524-3 0  9990
2 32264  51.9750 294.1968 0000616 144.5398 229.1422 12.62298837776956
GLOBALSTAR M066         
1 32265U 07048C   24242.55823486 -.00000034  00000+0  41700-3 0  9994
2 32265  51.9668 159.8428 0001184 312.2743 219.5888 12.55317134779082
GLOBALSTAR M068         
1 32266U 07048D   24243.89810934 -.00000064  00000+0  22085-3 0  9995
2 32266  51.9877 107.1384 0000455 158.1319 213.8552 12.62798014781174
GLOBALSTAR M079         
1 37188U 10054A   24243.48207207 -.00000071  00000+0  18093-3 0  9994
2 37188  52.0046 304.7431 0000483  81.6092 292.1631 12.62263333639743
GLOBALSTAR M074         
1 37189U 10054B   24243.42886292 -.00000064  00000+0  22287-3 0  9998
2 37189  52.0023 304.2715 0000480 115.7749 256.6791 12.62272121640349
GLOBALSTAR M076         
1 37190U 10054C   24243.45583187 -.00000057  00000+0  26343-3 0  9999
2 37190  52.0038 304.3379 0000843  93.8279 278.9286 12.62256043640061
GLOBALSTAR M077         
1 37191U 10054D   24243.36336692 -.00000071  00000+0  18151-3 0  9991
2 37191  52.0050 261.3881 0000296 110.6580 263.0509 12.62263212640420
